[{"OBJECT_NAME":"CALSPHERE 1","OBJECT_ID":"1964-063C","EPOCH":"2026-03-03T00:55:41.817216","MEAN_MOTION":13.76487462,"ECCENTRICITY":0.0023463,"INCLINATION":90.2154,"RA_OF_ASC_NODE":69.2989,"ARG_OF_PERICENTER":252.4583,"MEAN_ANOMALY":162.7707,"EPHEMERIS_TYPE":0,"CLASSIFICATION_TYPE":"U","NORAD_CAT_ID":900,"ELEMENT_SET_NO":999,"REV_AT_EPOCH":5682,"BSTAR":0.00073172,"MEAN_MOTION_DOT":7.26e-6,"MEAN_MOTION_DDOT":0},{"OBJECT_NAME":"CALSPHERE 2","OBJECT_ID":"1964-063E","EPOCH":"2026-03-03T01:07:33.518208","MEAN_MOTION":13.52891309,"ECCENTRICITY":0.0018853,"INCLINATION":90.2279,"RA_OF_ASC_NODE":73.2811,"ARG_OF_PERICENTER":169.5439,"MEAN_ANOMALY":251.0993,"EPHEMERIS_TYPE":0,"CLASSIFICATION_TYPE":"U","NORAD_CAT_ID":902,"ELEMENT_SET_NO":999,"REV_AT_EPOCH":84191,"BSTAR":5.444e-5,"MEAN_MOTION_DOT":4.5e-7,"MEAN_MOTION_DDOT":0},{"OBJECT_NAME":"LCS 1","OBJECT_ID":"1965-034C","EPOCH":"2026-03-03T03:28:54.186240","MEAN_MOTION":9.89309906,"ECCENTRICITY":0.0013179,"INCLINATION":32.1422,"RA_OF_ASC_NODE":68.7989,"ARG_OF_PERICENTER":106.5711,"MEAN_ANOMALY":253.6234,"EPHEMERIS_TYPE":0,"CLASSIFICATION_TYPE":"U","NORAD_CAT_ID":1361,"ELEMENT_SET_NO":999,"REV_AT_EPOCH":19938,"BSTAR":0.00057692,"MEAN_MOTION_DOT":1.3e-7,"MEAN_MOTION_DDOT":0},{"OBJECT_NAME":"TEMPSAT 1","OBJECT_ID":"1965-065E","EPOCH":"2026-03-02T21:46:25.174848","MEAN_MOTION":13.33588758,"ECCENTRICITY":0.0069594,"INCLINATION":89.9923,"RA_OF_ASC_NODE":212.5899,"ARG_OF_PERICENTER":185.6585,"MEAN_ANOMALY":291.8316,"EPHEMERIS_TYPE":0,"CLASSIFICATION_TYPE":"U","NORAD_CAT_ID":1512,"ELEMENT_SET_NO":999,"REV_AT_EPOCH":94588,"BSTAR":4.944e-5,"MEAN_MOTION_DOT":3.4e-7,"MEAN_MOTION_DDOT":0},{"OBJECT_NAME":"CALSPHERE 4A","OBJECT_ID":"1965-065H","EPOCH":"2026-03-03T04:43:03.423360","MEAN_MOTION":13.3625774,"ECCENTRICITY":0.0070805,"INCLINATION":89.9045,"RA_OF_ASC_NODE":123.5323,"ARG_OF_PERICENTER":44.3361,"MEAN_ANOMALY":21.5862,"EPHEMERIS_TYPE":0,"CLASSIFICATION_TYPE":"U","NORAD_CAT_ID":1520,"ELEMENT_SET_NO":999,"REV_AT_EPOCH":94855,"BSTAR":0.0002127,"MEAN_MOTION_DOT":1.2e-6,"MEAN_MOTION_DDOT":0},{"OBJECT_NAME":"OPS 5712 (P/L 160)","OBJECT_ID":"1967-053A","EPOCH":"2026-03-03T03:00:12.437280","MEAN_MOTION":14.76050487,"ECCENTRICITY":0.0004564,"INCLINATION":69.9176,"RA_OF_ASC_NODE":297.9409,"ARG_OF_PERICENTER":229.5602,"MEAN_ANOMALY":130.5148,"EPHEMERIS_TYPE":0,"CLASSIFICATION_TYPE":"U","NORAD_CAT_ID":2826,"ELEMENT_SET_NO":999,"REV_AT_EPOCH":5057,"BSTAR":0.0012476,"MEAN_MOTION_DOT":8.548e-5,"MEAN_MOTION_DDOT":0},{"OBJECT_NAME":"OPS 5712 (P/L 153)","OBJECT_ID":"1967-053H","EPOCH":"2026-03-03T03:23:04.483104","MEAN_MOTION":13.96810244,"ECCENTRICITY":0.0008927,"INCLINATION":69.9764,"RA_OF_ASC_NODE":342.6056,"ARG_OF_PERICENTER":316.5061,"MEAN_ANOMALY":43.534,"EPHEMERIS_TYPE":0,"CLASSIFICATION_TYPE":"U","NORAD_CAT_ID":2874,"ELEMENT_SET_NO":999,"REV_AT_EPOCH":99197,"BSTAR":7.9963e-5,"MEAN_MOTION_DOT":5.8e-7,"MEAN_MOTION_DDOT":0},{"OBJECT_NAME":"RIGIDSPHERE 2 (LCS 4)","OBJECT_ID":"1971-067E","EPOCH":"2026-03-03T04:45:53.144064","MEAN_MOTION":14.37729549,"ECCENTRICITY":0.005815,"INCLINATION":87.6267,"RA_OF_ASC_NODE":8.2087,"ARG_OF_PERICENTER":223.1022,"MEAN_ANOMALY":136.5617,"EPHEMERIS_TYPE":0,"CLASSIFICATION_TYPE":"U","NORAD_CAT_ID":5398,"ELEMENT_SET_NO":999,"REV_AT_EPOCH":85865,"BSTAR":0.00029121,"MEAN_MOTION_DOT":9.1e-6,"MEAN_MOTION_DDOT":0},{"OBJECT_NAME":"COSMOS 2493 (SKRL-756 1)","OBJECT_ID":"2013-078A","EPOCH":"2026-03-03T03:36:41.895360","MEAN_MOTION":15.01512634,"ECCENTRICITY":0.0011378,"INCLINATION":82.4162,"RA_OF_ASC_NODE":4.8785,"ARG_OF_PERICENTER":239.1387,"MEAN_ANOMALY":120.8719,"EPHEMERIS_TYPE":0,"CLASSIFICATION_TYPE":"U","NORAD_CAT_ID":39490,"ELEMENT_SET_NO":999,"REV_AT_EPOCH":66204,"BSTAR":0.00033709,"MEAN_MOTION_DOT":4.391e-5,"MEAN_MOTION_DDOT":0},{"OBJECT_NAME":"COSMOS 2494 (SKRL-756 2)","OBJECT_ID":"2013-078B","EPOCH":"2026-03-03T03:16:40.408320","MEAN_MOTION":15.04133456,"ECCENTRICITY":0.0015248,"INCLINATION":82.4156,"RA_OF_ASC_NODE":354.7217,"ARG_OF_PERICENTER":198.6222,"MEAN_ANOMALY":161.4448,"EPHEMERIS_TYPE":0,"CLASSIFICATION_TYPE":"U","NORAD_CAT_ID":39491,"ELEMENT_SET_NO":999,"REV_AT_EPOCH":66286,"BSTAR":0.0003712,"MEAN_MOTION_DOT":5.185e-5,"MEAN_MOTION_DDOT":0}]
