CALSPHERE 1             
1 00900U 64063C   26062.03867844  .00000726  00000+0  73172-3 0  9991
2 00900  90.2154  69.2989 0023463 252.4583 162.7707 13.76487462 56821
CALSPHERE 2             
1 00902U 64063E   26062.04691572  .00000045  00000+0  54440-4 0  9999
2 00902  90.2279  73.2811 0018853 169.5439 251.0993 13.52891309841919
LCS 1                   
1 01361U 65034C   26062.14507160  .00000013  00000+0  57692-3 0  9994
2 01361  32.1422  68.7989 0013179 106.5711 253.6234  9.89309906199384
TEMPSAT 1               
1 01512U 65065E   26061.90723582  .00000034  00000+0  49440-4 0  9993
2 01512  89.9923 212.5899 0069594 185.6585 291.8316 13.33588758945883
CALSPHERE 4A            
1 01520U 65065H   26062.19656740  .00000120  00000+0  21270-3 0  9991
2 01520  89.9045 123.5323 0070805  44.3361  21.5862 13.36257740948558
OPS 5712 (P/L 160)      
1 02826U 67053A   26062.12514395  .00008548  00000+0  12476-2 0  9991
2 02826  69.9176 297.9409 0004564 229.5602 130.5148 14.76050487 50574
OPS 5712 (P/L 153)      
1 02874U 67053H   26062.14102411  .00000058  00000+0  79963-4 0  9992
2 02874  69.9764 342.6056 0008927 316.5061  43.5340 13.96810244991970
RIGIDSPHERE 2 (LCS 4)   
1 05398U 71067E   26062.19853176  .00000910  00000+0  29121-3 0  9999
2 05398  87.6267   8.2087 0058150 223.1022 136.5617 14.37729549858651
COSMOS 2493 (SKRL-756 1)
1 39490U 13078A   26062.15048490  .00004391  00000+0  33709-3 0  9992
2 39490  82.4162   4.8785 0011378 239.1387 120.8719 15.01512634662049
COSMOS 2494 (SKRL-756 2)
1 39491U 13078B   26062.13657880  .00005185  00000+0  37120-3 0  9993
2 39491  82.4156 354.7217 0015248 198.6222 161.4448 15.04133456662861
